start=new Date('2022-01-12T00:00:00.000Z').valueOf();
sats=[{"APOAPSIS":"548.479","RA_OF_ASC_NODE":"311.9415","MEAN_MOTION":"15.06397455","SEMIMAJOR_AXIS":"6925.356","TIME_SYSTEM":"UTC","OBJECT_NAME":"STARLINK-1917","PERIAPSIS":"545.964","COUNTRY_CODE":"US","MEAN_MOTION_DOT":"-0.00001244","REF_FRAME":"TEME","ECCENTRICITY":"0.00018160","INCLINATION":"53.0548","MEAN_ELEMENT_THEORY":"SGP4","ARG_OF_PERICENTER":"67.3935","GP_ID":"193662576","CLASSIFICATION_TYPE":"U","ELEMENT_SET_NO":"999","MEAN_ANOMALY":"292.7245","SITE":"AFETR","CENTER_NAME":"EARTH","EPOCH":"2022-01-11T12:27:28.204416","LAUNCH_DATE":"2020-10-24","BSTAR":"-0.00006459400000","TLE_LINE2":"2 46767  53.0548 311.9415 0001816  67.3935 292.7245 15.06397455 67649","DECAY_DATE":null,"MEAN_MOTION_DDOT":"0.0000000000000","TLE_LINE1":"1 46767U 20074AE  22011.51907644 -.00001244  00000-0 -64594-4 0  9990","RCS_SIZE":"LARGE","PERIOD":"95.592","EPHEMERIS_TYPE":"0","REV_AT_EPOCH":"6764","NORAD_CAT_ID":"46767","OBJECT_ID":"2020-074AE","OBJECT_TYPE":"PAYLOAD","FILE":"3269657"},{"RCS_SIZE":"LARGE","TLE_LINE1":"1 46768U 20074AF  22011.52277179 -.00001106  00000-0 -55355-4 0  9997","DECAY_DATE":null,"MEAN_MOTION_DDOT":"0.0000000000000","PERIOD":"95.593","REV_AT_EPOCH":"6764","NORAD_CAT_ID":"46768","EPHEMERIS_TYPE":"0","OBJECT_TYPE":"PAYLOAD","OBJECT_ID":"2020-074AF","FILE":"3269657","MEAN_ANOMALY":"305.5257","CLASSIFICATION_TYPE":"U","ELEMENT_SET_NO":"999","CENTER_NAME":"EARTH","SITE":"AFETR","EPOCH":"2022-01-11T12:32:47.482656","LAUNCH_DATE":"2020-10-24","TLE_LINE2":"2 46768  53.0567 311.9398 0002209  54.5938 305.5257 15.06383610 67643","BSTAR":"-0.00005535500000","COUNTRY_CODE":"US","MEAN_MOTION_DOT":"-0.00001106","REF_FRAME":"TEME","ECCENTRICITY":"0.00022090","INCLINATION":"53.0567","ARG_OF_PERICENTER":"54.5938","MEAN_ELEMENT_THEORY":"SGP4","GP_ID":"193662828","MEAN_MOTION":"15.06383610","APOAPSIS":"548.794","RA_OF_ASC_NODE":"311.9398","SEMIMAJOR_AXIS":"6925.399","TIME_SYSTEM":"UTC","OBJECT_NAME":"STARLINK-1918","PERIAPSIS":"545.734"},{"FILE":"3269987","OBJECT_TYPE":"PAYLOAD","OBJECT_ID":"2020-074AG","REV_AT_EPOCH":"6789","NORAD_CAT_ID":"46769","EPHEMERIS_TYPE":"0","PERIOD":"93.103","RCS_SIZE":"LARGE","TLE_LINE1":"1 46769U 20074AG  22011.85092553  .00037876  00000-0  75045-3 0  9993","MEAN_MOTION_DDOT":"0.0000000000000","DECAY_DATE":null,"TLE_LINE2":"2 46769  53.0568 296.1459 0008195 278.9155  81.0924 15.46679765 67897","BSTAR":"0.00075045000000","LAUNCH_DATE":"2020-10-24","EPOCH":"2022-01-11T20:25:19.965792","CENTER_NAME":"EARTH","SITE":"AFETR","MEAN_ANOMALY":"81.0924","CLASSIFICATION_TYPE":"U","ELEMENT_SET_NO":"999","GP_ID":"193692881","ARG_OF_PERICENTER":"278.9155","MEAN_ELEMENT_THEORY":"SGP4","INCLINATION":"53.0568","ECCENTRICITY":"0.00081950","REF_FRAME":"TEME","COUNTRY_CODE":"US","MEAN_MOTION_DOT":"0.00037876","OBJECT_NAME":"STARLINK-1919","PERIAPSIS":"420.873","TIME_SYSTEM":"UTC","SEMIMAJOR_AXIS":"6804.584","RA_OF_ASC_NODE":"296.1459","APOAPSIS":"432.025","MEAN_MOTION":"15.46679765"},{"FILE":"3269877","OBJECT_ID":"2020-074AH","OBJECT_TYPE":"PAYLOAD","DECAY_DATE":null,"MEAN_MOTION_DDOT":"0.0000000000000","TLE_LINE1":"1 46770U 20074AH  22011.54393933 -.00001781  00000-0 -10075-3 0  9997","RCS_SIZE":"LARGE","EPHEMERIS_TYPE":"0","NORAD_CAT_ID":"46770","REV_AT_EPOCH":"6766","PERIOD":"95.593","LAUNCH_DATE":"2020-10-24","EPOCH":"2022-01-11T13:03:16.358112","BSTAR":"-0.00010075000000","TLE_LINE2":"2 46770  53.0573 311.8399 0001704  65.3337 294.7829 15.06388552 67661","SITE":"AFETR","CENTER_NAME":"EARTH","CLASSIFICATION_TYPE":"U","ELEMENT_SET_NO":"999","MEAN_ANOMALY":"294.7829","MEAN_ELEMENT_THEORY":"SGP4","ARG_OF_PERICENTER":"65.3337","INCLINATION":"53.0573","GP_ID":"193668991","COUNTRY_CODE":"US","MEAN_MOTION_DOT":"-0.00001781","ECCENTRICITY":"0.00017040","REF_FRAME":"TEME","SEMIMAJOR_AXIS":"6925.384","OBJECT_NAME":"STARLINK-1932","PERIAPSIS":"546.069","TIME_SYSTEM":"UTC","APOAPSIS":"548.429","MEAN_MOTION":"15.06388552","RA_OF_ASC_NODE":"311.8399"},{"ELEMENT_SET_NO":"999","CLASSIFICATION_TYPE":"U","MEAN_ANOMALY":"300.9124","SITE":"AFETR","CENTER_NAME":"EARTH","EPOCH":"2022-01-11T12:43:23.857536","LAUNCH_DATE":"2020-10-24","BSTAR":"-0.00004047500000","TLE_LINE2":"2 46772  53.0555 311.9073 0001823  59.2044 300.9124 15.06393535 67645","MEAN_MOTION_DDOT":"0.0000000000000","DECAY_DATE":null,"RCS_SIZE":"LARGE","TLE_LINE1":"1 46772U 20074AK  22011.53013724 -.00000884  00000-0 -40475-4 0  9996","PERIOD":"95.593","EPHEMERIS_TYPE":"0","REV_AT_EPOCH":"6764","NORAD_CAT_ID":"46772","OBJECT_ID":"2020-074AK","OBJECT_TYPE":"PAYLOAD","FILE":"3269657","APOAPSIS":"548.496","MEAN_MOTION":"15.06393535","RA_OF_ASC_NODE":"311.9073","SEMIMAJOR_AXIS":"6925.368","TIME_SYSTEM":"UTC","PERIAPSIS":"545.971","OBJECT_NAME":"STARLINK-1936","MEAN_MOTION_DOT":"-0.00000884","COUNTRY_CODE":"US","REF_FRAME":"TEME","ECCENTRICITY":"0.00018230","INCLINATION":"53.0555","MEAN_ELEMENT_THEORY":"SGP4","ARG_OF_PERICENTER":"59.2044","GP_ID":"193662077"},{"SEMIMAJOR_AXIS":"6916.897","TIME_SYSTEM":"UTC","PERIAPSIS":"537.343","OBJECT_NAME":"STARLINK-1939","APOAPSIS":"540.181","MEAN_MOTION":"15.09161755","RA_OF_ASC_NODE":"309.6001","INCLINATION":"53.0532","MEAN_ELEMENT_THEORY":"SGP4","ARG_OF_PERICENTER":"78.9628","GP_ID":"193663328","COUNTRY_CODE":"US","MEAN_MOTION_DOT":"0.00007102","REF_FRAME":"TEME","ECCENTRICITY":"0.00020510","EPOCH":"2022-01-11T12:49:06.558816","LAUNCH_DATE":"2020-10-24","BSTAR":"0.00045984000000","TLE_LINE2":"2 46774  53.0532 309.6001 0002051  78.9628 281.1593 15.09161755 67681","CLASSIFICATION_TYPE":"U","ELEMENT_SET_NO":"999","MEAN_ANOMALY":"281.1593","CENTER_NAME":"EARTH","SITE":"AFETR","OBJECT_ID":"2020-074AM","OBJECT_TYPE":"PAYLOAD","FILE":"3269657","MEAN_MOTION_DDOT":"0.0000000000000","DECAY_DATE":null,"RCS_SIZE":"LARGE","TLE_LINE1":"1 46774U 20074AM  22011.53410369  .00007102  00000-0  45984-3 0  9991","PERIOD":"95.417","EPHEMERIS_TYPE":"0","NORAD_CAT_ID":"46774","REV_AT_EPOCH":"6768"},{"RA_OF_ASC_NODE":"276.9251","APOAPSIS":"304.190","MEAN_MOTION":"15.89713560","SEMIMAJOR_AXIS":"6681.222","PERIAPSIS":"301.984","OBJECT_NAME":"STARLINK-1945","TIME_SYSTEM":"UTC","COUNTRY_CODE":"US","MEAN_MOTION_DOT":"0.00170877","ECCENTRICITY":"0.00016510","REF_FRAME":"TEME","MEAN_ELEMENT_THEORY":"SGP4","ARG_OF_PERICENTER":"51.3702","INCLINATION":"53.0530","GP_ID":"193693381","CENTER_NAME":"EARTH","SITE":"AFETR","CLASSIFICATION_TYPE":"U","ELEMENT_SET_NO":"999","MEAN_ANOMALY":"308.7471","LAUNCH_DATE":"2020-10-24","EPOCH":"2022-01-11T22:24:17.140608","BSTAR":"0.00055669000000","TLE_LINE2":"2 46775  53.0530 276.9251 0001651  51.3702 308.7471 15.89713560 68166","MEAN_MOTION_DDOT":"0.0000000000000","DECAY_DATE":null,"RCS_SIZE":"LARGE","TLE_LINE1":"1 46775U 20074AN  22011.93353172  .00170877  00000-0  55669-3 0  9995","EPHEMERIS_TYPE":"0","REV_AT_EPOCH":"6816","NORAD_CAT_ID":"46775","PERIOD":"90.582","FILE":"3269987","OBJECT_ID":"2020-074AN","OBJECT_TYPE":"PAYLOAD"},{"APOAPSIS":"546.012","RA_OF_ASC_NODE":"311.8290","MEAN_MOTION":"15.07047890","SEMIMAJOR_AXIS":"6923.364","OBJECT_NAME":"STARLINK-1946","PERIAPSIS":"544.446","TIME_SYSTEM":"UTC","COUNTRY_CODE":"US","MEAN_MOTION_DOT":"0.00072641","ECCENTRICITY":"0.00011310","REF_FRAME":"TEME","MEAN_ELEMENT_THEORY":"SGP4","ARG_OF_PERICENTER":"64.6387","INCLINATION":"53.0557","GP_ID":"193667103","SITE":"AFETR","CENTER_NAME":"EARTH","CLASSIFICATION_TYPE":"U","ELEMENT_SET_NO":"999","MEAN_ANOMALY":"295.4719","LAUNCH_DATE":"2020-10-24","EPOCH":"2022-01-11T13:03:23.478336","BSTAR":"0.00476160000000","TLE_LINE2":"2 46776  53.0557 311.8290 0001131  64.6387 295.4719 15.07047890 67338","MEAN_MOTION_DDOT":"0.0000000000000","DECAY_DATE":null,"TLE_LINE1":"1 46776U 20074AP  22011.54402174  .00072641  00000-0  47616-2 0  9992","RCS_SIZE":"LARGE","EPHEMERIS_TYPE":"0","NORAD_CAT_ID":"46776","REV_AT_EPOCH":"6733","PERIOD":"95.551","FILE":"3269811","OBJECT_ID":"2020-074AP","OBJECT_TYPE":"PAYLOAD"},{"FILE":"3269987","OBJECT_TYPE":"PAYLOAD","OBJECT_ID":"2020-074AS","REV_AT_EPOCH":"6804","NORAD_CAT_ID":"46779","EPHEMERIS_TYPE":"0","PERIOD":"95.592","TLE_LINE1":"1 46779U 20074AS  22011.89181234  .00000217  00000-0  33503-4 0  9996","RCS_SIZE":"LARGE","MEAN_MOTION_DDOT":"0.0000000000000","DECAY_DATE":null,"TLE_LINE2":"2 46779  53.0555 285.2753 0002018  63.9893 296.1304 15.06399104 68040","BSTAR":"0.00003350300000","LAUNCH_DATE":"2020-10-24","EPOCH":"2022-01-11T21:24:12.586176","SITE":"AFETR","CENTER_NAME":"EARTH","MEAN_ANOMALY":"296.1304","ELEMENT_SET_NO":"999","CLASSIFICATION_TYPE":"U","GP_ID":"193691881","ARG_OF_PERICENTER":"63.9893","MEAN_ELEMENT_THEORY":"SGP4","INCLINATION":"53.0555","ECCENTRICITY":"0.00020180","REF_FRAME":"TEME","MEAN_MOTION_DOT":"0.00000217","COUNTRY_CODE":"US","OBJECT_NAME":"STARLINK-1798","PERIAPSIS":"545.819","TIME_SYSTEM":"UTC","SEMIMAJOR_AXIS":"6925.351","MEAN_MOTION":"15.06399104","APOAPSIS":"548.614","RA_OF_ASC_NODE":"285.2753"},{"INCLINATION":"53.0557","MEAN_ELEMENT_THEORY":"SGP4","ARG_OF_PERICENTER":"60.6937","GP_ID":"193662829","MEAN_MOTION_DOT":"-0.00001294","COUNTRY_CODE":"US","REF_FRAME":"TEME","ECCENTRICITY":"0.00020100","SEMIMAJOR_AXIS":"6925.361","TIME_SYSTEM":"UTC","OBJECT_NAME":"STARLINK-1832","PERIAPSIS":"545.834","APOAPSIS":"548.618","RA_OF_ASC_NODE":"287.1179","MEAN_MOTION":"15.06395951","OBJECT_ID":"2020-074AT","OBJECT_TYPE":"PAYLOAD","FILE":"3269657","DECAY_DATE":null,"MEAN_MOTION_DDOT":"0.0000000000000","TLE_LINE1":"1 46780U 20074AT  22011.48267873 -.00001294  00000-0 -67996-4 0  9998","RCS_SIZE":"LARGE","PERIOD":"95.592","EPHEMERIS_TYPE":"0","REV_AT_EPOCH":"6798","NORAD_CAT_ID":"46780","EPOCH":"2022-01-11T11:35:03.442272","LAUNCH_DATE":"2020-10-24","BSTAR":"-0.00006799600000","TLE_LINE2":"2 46780  53.0557 287.1179 0002010  60.6937 299.4253 15.06395951 67989","CLASSIFICATION_TYPE":"U","ELEMENT_SET_NO":"999","MEAN_ANOMALY":"299.4253","CENTER_NAME":"EARTH","SITE":"AFETR"}];
